ATLAS CENTAUR 2         
1 00694U 63047A   26072.64775017  .00002235  00000+0  26288-3 0  9993
2 00694  30.3515 173.5220 0547662 115.1616 250.6795 14.12083127132187
THOR AGENA D R/B        
1 00733U 64002A   26072.98765643  .00000270  00000+0  11361-3 0  9993
2 00733  99.1223  86.5594 0032028 245.2465 114.5384 14.34023080238915
SL-3 R/B                
1 00877U 64053B   26072.93481440  .00000248  00000+0  72221-4 0  9991
2 00877  65.0781 318.7922 0079884 290.8845  68.3716 14.61371971267416
SL-8 R/B                
1 02802U 67045B   26072.93474773  .00000380  00000+0  11263-3 0  9991
2 02802  74.0139 340.1625 0064409 345.4252  14.5046 14.45626921 89633
SL-8 R/B                
1 03230U 68040B   26072.96888117  .00003378  00000+0  25066-3 0  9993
2 03230  74.0314 304.9506 0023747 127.0511 233.2854 15.03287197 90656
OAO 2                   
1 03597U 68110A   26072.85333184  .00000282  00000+0  81052-4 0  9993
2 03597  34.9925 241.9760 0006115 236.0350 123.9760 14.47310523 19704
ISIS 1                  
1 03669U 69009A   26072.70257787  .00000171  00000+0  10543-3 0  9992
2 03669  88.4537 154.8712 1707838  81.0671 297.8981 11.30415770348981
SERT 2                  
1 04327U 70009A   26072.32568034  .00000008  00000+0  67097-4 0  9990
2 04327  99.2761  15.2203 0005191 146.6829   7.2096 13.58730231780380
SL-3 R/B                
1 05118U 71028B   26072.95025943  .00046294  00000+0  53613-3 0  9992
2 05118  81.2358  46.7650 0013236 266.4104  93.5636 15.61522029989337
ASTEX 1                 
1 05560U 71089A   26072.96069886  .00000562  00000+0  14284-3 0  9994
2 05560  92.7115 153.1406 0017743  73.3285 286.9867 14.50774793862923
SL-8 R/B                
1 05730U 71119B   26072.76238701  .00013072  00000+0  68060-3 0  9990
2 05730  73.8867 168.1050 0548171 133.8936 230.8870 14.37968742656079
OAO 3 (COPERNICUS)      
1 06153U 72065A   26072.92192586  .00000397  00000+0  85796-4 0  9991
2 06153  35.0052 273.2032 0006859 201.5055 294.8467 14.60001909846814
ATLAS CENTAUR R/B       
1 06155U 72065B   26072.88262861  .00001486  00000+0  20556-3 0  9994
2 06155  35.0010 281.1817 0033113  44.4019 315.9329 14.77700357841881
SL-8 R/B                
1 08459U 75112B   26072.95487443  .00000265  00000+0  95650-4 0  9994
2 08459  74.0634  11.0665 0014432 102.4699 257.8071 14.38206445632486
SL-3 R/B                
1 10114U 77057B   26072.92732108  .00014879  00000+0  31053-3 0  9995
2 10114  97.5778 245.0349 0006160 266.7031  93.3513 15.45624338668989
SEASAT 1                
1 10967U 78064A   26072.92313221  .00000261  00000+0  11137-3 0  9992
2 10967 108.0101 134.3832 0002377 284.3042  75.7840 14.46163930507125
SL-14 R/B               
1 11267U 79011B   26072.47053375  .00000694  00000+0  65950-4 0  9993
2 11267  82.5205  92.9822 0017200  48.8388 311.4312 14.91913438529343
