[{"OBJECT_NAME":"ATLAS CENTAUR 2","OBJECT_ID":"1963-047A","EPOCH":"2026-03-13T15:32:45.614688","MEAN_MOTION":14.12083127,"ECCENTRICITY":0.05476627,"INCLINATION":30.3515,"RA_OF_ASC_NODE":173.522,"ARG_OF_PERICENTER":115.1616,"MEAN_ANOMALY":250.6795,"EPHEMERIS_TYPE":0,"CLASSIFICATION_TYPE":"U","NORAD_CAT_ID":694,"ELEMENT_SET_NO":999,"REV_AT_EPOCH":13218,"BSTAR":0.00026287574,"MEAN_MOTION_DOT":2.235e-5,"MEAN_MOTION_DDOT":0},{"OBJECT_NAME":"THOR AGENA D R/B","OBJECT_ID":"1964-002A","EPOCH":"2026-03-13T23:42:13.515552","MEAN_MOTION":14.3402308,"ECCENTRICITY":0.00320288,"INCLINATION":99.1223,"RA_OF_ASC_NODE":86.5594,"ARG_OF_PERICENTER":245.2465,"MEAN_ANOMALY":114.5384,"EPHEMERIS_TYPE":0,"CLASSIFICATION_TYPE":"U","NORAD_CAT_ID":733,"ELEMENT_SET_NO":999,"REV_AT_EPOCH":23891,"BSTAR":0.0001136143,"MEAN_MOTION_DOT":2.7e-6,"MEAN_MOTION_DDOT":0},{"OBJECT_NAME":"SL-3 R/B","OBJECT_ID":"1964-053B","EPOCH":"2026-03-13T22:26:07.964160","MEAN_MOTION":14.61371971,"ECCENTRICITY":0.00798845,"INCLINATION":65.0781,"RA_OF_ASC_NODE":318.7922,"ARG_OF_PERICENTER":290.8845,"MEAN_ANOMALY":68.3716,"EPHEMERIS_TYPE":0,"CLASSIFICATION_TYPE":"U","NORAD_CAT_ID":877,"ELEMENT_SET_NO":999,"REV_AT_EPOCH":26741,"BSTAR":7.2221314e-5,"MEAN_MOTION_DOT":2.48e-6,"MEAN_MOTION_DDOT":0},{"OBJECT_NAME":"SL-8 R/B","OBJECT_ID":"1967-045B","EPOCH":"2026-03-13T22:26:02.203872","MEAN_MOTION":14.45626921,"ECCENTRICITY":0.00644094,"INCLINATION":74.0139,"RA_OF_ASC_NODE":340.1625,"ARG_OF_PERICENTER":345.4252,"MEAN_ANOMALY":14.5046,"EPHEMERIS_TYPE":0,"CLASSIFICATION_TYPE":"U","NORAD_CAT_ID":2802,"ELEMENT_SET_NO":999,"REV_AT_EPOCH":8963,"BSTAR":0.00011263078,"MEAN_MOTION_DOT":3.8e-6,"MEAN_MOTION_DDOT":0},{"OBJECT_NAME":"SL-8 R/B","OBJECT_ID":"1968-040B","EPOCH":"2026-03-13T23:15:11.333088","MEAN_MOTION":15.03287197,"ECCENTRICITY":0.00237478,"INCLINATION":74.0314,"RA_OF_ASC_NODE":304.9506,"ARG_OF_PERICENTER":127.0511,"MEAN_ANOMALY":233.2854,"EPHEMERIS_TYPE":0,"CLASSIFICATION_TYPE":"U","NORAD_CAT_ID":3230,"ELEMENT_SET_NO":999,"REV_AT_EPOCH":9065,"BSTAR":0.000250661,"MEAN_MOTION_DOT":3.378e-5,"MEAN_MOTION_DDOT":0},{"OBJECT_NAME":"OAO 2","OBJECT_ID":"1968-110A","EPOCH":"2026-03-13T20:28:47.870976","MEAN_MOTION":14.47310523,"ECCENTRICITY":0.00061152,"INCLINATION":34.9925,"RA_OF_ASC_NODE":241.976,"ARG_OF_PERICENTER":236.035,"MEAN_ANOMALY":123.976,"EPHEMERIS_TYPE":0,"CLASSIFICATION_TYPE":"U","NORAD_CAT_ID":3597,"ELEMENT_SET_NO":999,"REV_AT_EPOCH":1970,"BSTAR":8.1052318e-5,"MEAN_MOTION_DOT":2.82e-6,"MEAN_MOTION_DDOT":0},{"OBJECT_NAME":"ISIS 1","OBJECT_ID":"1969-009A","EPOCH":"2026-03-13T16:51:42.727968","MEAN_MOTION":11.3041577,"ECCENTRICITY":0.17078383,"INCLINATION":88.4537,"RA_OF_ASC_NODE":154.8712,"ARG_OF_PERICENTER":81.0671,"MEAN_ANOMALY":297.8981,"EPHEMERIS_TYPE":0,"CLASSIFICATION_TYPE":"U","NORAD_CAT_ID":3669,"ELEMENT_SET_NO":999,"REV_AT_EPOCH":34898,"BSTAR":0.00010543361,"MEAN_MOTION_DOT":1.71e-6,"MEAN_MOTION_DDOT":0},{"OBJECT_NAME":"SERT 2","OBJECT_ID":"1970-009A","EPOCH":"2026-03-13T07:48:58.781376","MEAN_MOTION":13.58730231,"ECCENTRICITY":0.00051915,"INCLINATION":99.2761,"RA_OF_ASC_NODE":15.2203,"ARG_OF_PERICENTER":146.6829,"MEAN_ANOMALY":7.2096,"EPHEMERIS_TYPE":0,"CLASSIFICATION_TYPE":"U","NORAD_CAT_ID":4327,"ELEMENT_SET_NO":999,"REV_AT_EPOCH":78038,"BSTAR":6.7096595e-5,"MEAN_MOTION_DOT":8.0e-8,"MEAN_MOTION_DDOT":0},{"OBJECT_NAME":"SL-3 R/B","OBJECT_ID":"1971-028B","EPOCH":"2026-03-13T22:48:22.414752","MEAN_MOTION":15.61522029,"ECCENTRICITY":0.00132366,"INCLINATION":81.2358,"RA_OF_ASC_NODE":46.765,"ARG_OF_PERICENTER":266.4104,"MEAN_ANOMALY":93.5636,"EPHEMERIS_TYPE":0,"CLASSIFICATION_TYPE":"U","NORAD_CAT_ID":5118,"ELEMENT_SET_NO":999,"REV_AT_EPOCH":98933,"BSTAR":0.00053612899,"MEAN_MOTION_DOT":0.00046294,"MEAN_MOTION_DDOT":0},{"OBJECT_NAME":"ASTEX 1","OBJECT_ID":"1971-089A","EPOCH":"2026-03-13T23:03:24.381504","MEAN_MOTION":14.50774793,"ECCENTRICITY":0.00177438,"INCLINATION":92.7115,"RA_OF_ASC_NODE":153.1406,"ARG_OF_PERICENTER":73.3285,"MEAN_ANOMALY":286.9867,"EPHEMERIS_TYPE":0,"CLASSIFICATION_TYPE":"U","NORAD_CAT_ID":5560,"ELEMENT_SET_NO":999,"REV_AT_EPOCH":86292,"BSTAR":0.00014284021,"MEAN_MOTION_DOT":5.62e-6,"MEAN_MOTION_DDOT":0},{"OBJECT_NAME":"SL-8 R/B","OBJECT_ID":"1971-119B","EPOCH":"2026-03-13T18:17:50.237664","MEAN_MOTION":14.37968742,"ECCENTRICITY":0.05481712,"INCLINATION":73.8867,"RA_OF_ASC_NODE":168.105,"ARG_OF_PERICENTER":133.8936,"MEAN_ANOMALY":230.887,"EPHEMERIS_TYPE":0,"CLASSIFICATION_TYPE":"U","NORAD_CAT_ID":5730,"ELEMENT_SET_NO":999,"REV_AT_EPOCH":65607,"BSTAR":0.00068059563,"MEAN_MOTION_DOT":0.00013072,"MEAN_MOTION_DDOT":0},{"OBJECT_NAME":"OAO 3 (COPERNICUS)","OBJECT_ID":"1972-065A","EPOCH":"2026-03-13T22:07:34.394304","MEAN_MOTION":14.60001909,"ECCENTRICITY":0.0006859,"INCLINATION":35.0052,"RA_OF_ASC_NODE":273.2032,"ARG_OF_PERICENTER":201.5055,"MEAN_ANOMALY":294.8467,"EPHEMERIS_TYPE":0,"CLASSIFICATION_TYPE":"U","NORAD_CAT_ID":6153,"ELEMENT_SET_NO":999,"REV_AT_EPOCH":84681,"BSTAR":8.5795912e-5,"MEAN_MOTION_DOT":3.97e-6,"MEAN_MOTION_DDOT":0},{"OBJECT_NAME":"ATLAS CENTAUR R/B","OBJECT_ID":"1972-065B","EPOCH":"2026-03-13T21:10:59.111904","MEAN_MOTION":14.77700357,"ECCENTRICITY":0.00331135,"INCLINATION":35.001,"RA_OF_ASC_NODE":281.1817,"ARG_OF_PERICENTER":44.4019,"MEAN_ANOMALY":315.9329,"EPHEMERIS_TYPE":0,"CLASSIFICATION_TYPE":"U","NORAD_CAT_ID":6155,"ELEMENT_SET_NO":999,"REV_AT_EPOCH":84188,"BSTAR":0.00020556105,"MEAN_MOTION_DOT":1.486e-5,"MEAN_MOTION_DDOT":0},{"OBJECT_NAME":"SL-8 R/B","OBJECT_ID":"1975-112B","EPOCH":"2026-03-13T22:55:01.150752","MEAN_MOTION":14.38206445,"ECCENTRICITY":0.00144324,"INCLINATION":74.0634,"RA_OF_ASC_NODE":11.0665,"ARG_OF_PERICENTER":102.4699,"MEAN_ANOMALY":257.8071,"EPHEMERIS_TYPE":0,"CLASSIFICATION_TYPE":"U","NORAD_CAT_ID":8459,"ELEMENT_SET_NO":999,"REV_AT_EPOCH":63248,"BSTAR":9.5650058e-5,"MEAN_MOTION_DOT":2.65e-6,"MEAN_MOTION_DDOT":0},{"OBJECT_NAME":"SL-3 R/B","OBJECT_ID":"1977-057B","EPOCH":"2026-03-13T22:15:20.541312","MEAN_MOTION":15.45624338,"ECCENTRICITY":0.00061601,"INCLINATION":97.5778,"RA_OF_ASC_NODE":245.0349,"ARG_OF_PERICENTER":266.7031,"MEAN_ANOMALY":93.3513,"EPHEMERIS_TYPE":0,"CLASSIFICATION_TYPE":"U","NORAD_CAT_ID":10114,"ELEMENT_SET_NO":999,"REV_AT_EPOCH":66898,"BSTAR":0.00031053471,"MEAN_MOTION_DOT":0.00014879,"MEAN_MOTION_DDOT":0},{"OBJECT_NAME":"SEASAT 1","OBJECT_ID":"1978-064A","EPOCH":"2026-03-13T22:09:18.622944","MEAN_MOTION":14.4616393,"ECCENTRICITY":0.00023777,"INCLINATION":108.0101,"RA_OF_ASC_NODE":134.3832,"ARG_OF_PERICENTER":284.3042,"MEAN_ANOMALY":75.784,"EPHEMERIS_TYPE":0,"CLASSIFICATION_TYPE":"U","NORAD_CAT_ID":10967,"ELEMENT_SET_NO":999,"REV_AT_EPOCH":50712,"BSTAR":0.0001113705,"MEAN_MOTION_DOT":2.61e-6,"MEAN_MOTION_DDOT":0},{"OBJECT_NAME":"SL-14 R/B","OBJECT_ID":"1979-011B","EPOCH":"2026-03-13T11:17:34.116000","MEAN_MOTION":14.91913438,"ECCENTRICITY":0.00172005,"INCLINATION":82.5205,"RA_OF_ASC_NODE":92.9822,"ARG_OF_PERICENTER":48.8388,"MEAN_ANOMALY":311.4312,"EPHEMERIS_TYPE":0,"CLASSIFICATION_TYPE":"U","NORAD_CAT_ID":11267,"ELEMENT_SET_NO":999,"REV_AT_EPOCH":52934,"BSTAR":6.5949619e-5,"MEAN_MOTION_DOT":6.94e-6,"MEAN_MOTION_DDOT":0}]
